COSMOS 2413 (712)       
1 28509U 04053B   16137.66917578  .00000038  00000-0  00000+0 0  9993
2 28509  63.1272 191.2237 0005320 177.0248 257.1553  2.13101975 88633
COSMOS 2419 (714)       
1 28915U 05050A   16139.15852801 -.00000038  00000-0  00000+0 0  9996
2 28915  65.3101  79.1771 0017263 347.9436 151.9849  2.13115661 80911
COSMOS 2425 (716)       
1 29670U 06062A   16138.70886903 -.00000027  00000-0  10000-3 0  9992
2 29670  65.6468 318.1780 0021693 351.7832 221.6536  2.13104899 73102
COSMOS 2426 (717)       
1 29671U 06062B   16138.13975501 -.00000025  00000-0  10000-3 0  9991
2 29671  65.6644 318.2787 0016978 157.2927 200.6733  2.13102909 73095
COSMOS 2424 (715)       
1 29672U 06062C   16138.43088631 -.00000026  00000-0  10000-3 0  9995
2 29672  65.6485 318.1976 0016428 155.8203 241.8681  2.13102181 73102
COSMOS 2433 (720)       
1 32275U 07052A   16138.45525191 -.00000037  00000-0  10000-3 0  9999
2 32275  65.3247  78.9714 0004238 290.1980 280.6727  2.13104736 66618
COSMOS 2432 (719)       
1 32276U 07052B   16138.44801412 -.00000037  00000-0  10000-3 0  9992
2 32276  65.3369  79.0365 0013938 334.3635 184.8263  2.13104188 66614
COSMOS 2434 (721)       
1 32393U 07065A   16138.58101780 -.00000028  00000-0  00000+0 0  9997
2 32393  65.2658 317.5198 0005973  95.2622 104.3399  2.13102784 65321
COSMOS 2436 (723)       
1 32395U 07065C   16138.73471167 -.00000029  00000-0  10000-3 0  9991
2 32395  65.2779 317.5567 0017601   1.0393  48.4861  2.13102820 65264
COSMOS 2443 (725)       
1 33379U 08046B   16139.05488216 -.00000040  00000-0  10000-3 0  9996
2 33379  65.2540  78.3706 0016050 190.1049  26.2431  2.13101323 59497
COSMOS 2456 (730)       
1 36111U 09070A   16138.16927877  .00000033  00000-0  00000+0 0  9999
2 36111  64.1817 197.1271 0005250 303.2558 109.8775  2.13102867 49984
COSMOS 2457 (733)       
1 36112U 09070B   16139.09527700  .00000046  00000-0  00000+0 0  9998
2 36112  64.1634 197.0232 0006761 178.3641 355.5639  2.13101498 50003
COSMOS 2458 (734)       
1 36113U 09070C   16138.46018272  .00000037  00000-0  10000-3 0  9993
2 36113  64.1690 197.0504 0001535 309.0431 145.1439  2.13102065 49990
COSMOS 2459 (731)       
1 36400U 10007A   16138.46818472 -.00000039  00000-0  10000-3 0  9997
2 36400  65.2333  78.1253 0030148 350.6949  95.7062  2.13102320 48347
COSMOS 2461 (735)       
1 36401U 10007B   16138.66543617 -.00000039  00000-0  10000-3 0  9996
2 36401  65.2260  78.1007 0005796  49.3483  98.9322  2.13102390 48341
COSMOS 2460 (732)       
1 36402U 10007C   16138.31726424 -.00000038  00000-0  10000-3 0  9997
2 36402  65.2159  78.0896 0002247 321.6672 321.4406  2.13101883 48330
COSMOS 2466 (738)       
1 37137U 10041A   16139.24128177 -.00000032  00000-0  10000-3 0  9999
2 37137  64.8474 317.6120 0019179 152.4529  60.1476  2.13110906 44433
COSMOS 2465 (737)       
1 37138U 10041B   16138.51112910 -.00000029  00000-0  00000+0 0  9998
2 37138  64.8656 317.7110 0034729 167.5325  24.1869  2.13100863 44410
COSMOS 2464 (736)       
1 37139U 10041C   16138.47118450 -.00000029  00000-0  00000+0 0  9999
2 37139  64.8715 317.7077 0023916  16.9588 326.0739  2.13102563 44412
COSMOS 2471 (701K)      
1 37372U 11009A   16139.16387390 -.00000041  00000-0  00000+0 0  9995
2 37372  65.2138  78.0104 0008077 246.8274  98.2650  2.13102753 40620
COSMOS 2474 (742)       
1 37829U 11055A   16137.76261656  .00000027  00000-0  00000+0 0  9996
2 37829  64.5059 197.5407 0009423 252.6516  70.0573  2.13101903 35963
COSMOS 2476 (744)       
1 37867U 11064A   16138.72685830  .00000040  00000-0  00000+0 0  9994
2 37867  64.4856 197.5899 0018368 247.5598 140.7091  2.13102024 35342
COSMOS 2477 (745)       
1 37868U 11064B   16138.78867263  .00000041  00000-0  00000+0 0  9994
2 37868  64.4941 197.6281 0016300 248.9224   6.0892  2.13101838 35298
COSMOS 2475 (743)       
1 37869U 11064C   16138.74813252  .00000041  00000-0  00000+0 0  9990
2 37869  64.5016 197.6169 0021629 274.4251 265.5936  2.13101946 35305
COSMOS 2478 (746)       
1 37938U 11071A   16137.73590133 -.00000035  00000-0  00000+0 0  9997
2 37938  65.2413  78.2802 0014113 245.8122 198.2958  2.13088480 34894
COSMOS 2485 (747)       
1 39155U 13019A   16138.73270326  .00000041  00000-0  00000+0 0  9990
2 39155  64.6553 197.5334 0018563 242.3805 195.5141  2.13102025 23819
COSMOS 2492 (754)       
1 39620U 14012A   16138.15768686 -.00000038  00000-0  10000-3 0  9990
2 39620  65.1049  78.0875 0017549 331.3493  58.5432  2.13103473 16754
COSMOS 2500 (755)       
1 40001U 14032A   16138.97324700 -.00000040  00000-0  00000+0 0  9990
2 40001  65.0455  78.0863 0005530 228.2534 291.1042  2.13102969 14987
COSMOS 2501 (702K)      
1 40315U 14075A   16138.08632223 -.00000028  00000-0  00000+0 0  9995
2 40315  64.6373 319.1874 0015893 233.7811 126.5146  2.13101511 11370
COSMOS 2514 (751)       
1 41330U 16008A   16137.77997588 -.00000035  00000-0  00000+0 0  9992
2 41330  64.8453  78.3709 0008903 230.0576 272.8165  2.13103573  2121
